[{"OBJECT_NAME":"STARLINK-35010","OBJECT_ID":"2025-184J","EPOCH":"2026-03-09T16:37:03.145728","MEAN_MOTION":15.05647472,"ECCENTRICITY":9.62e-6,"INCLINATION":97.6041,"RA_OF_ASC_NODE":122.6981,"ARG_OF_PERICENTER":282.6242,"MEAN_ANOMALY":77.4974,"EPHEMERIS_TYPE":0,"CLASSIFICATION_TYPE":"U","NORAD_CAT_ID":65281,"ELEMENT_SET_NO":999,"REV_AT_EPOCH":3130,"BSTAR":0.00036660539,"MEAN_MOTION_DOT":5.233e-5,"MEAN_MOTION_DDOT":0},{"OBJECT_NAME":"COSMOS 2251 DEB","OBJECT_ID":"1993-036AZN","EPOCH":"2026-03-08T04:55:11.679456","MEAN_MOTION":14.74823481,"ECCENTRICITY":0.01364476,"INCLINATION":73.9716,"RA_OF_ASC_NODE":347.1087,"ARG_OF_PERICENTER":142.1945,"MEAN_ANOMALY":218.8911,"EPHEMERIS_TYPE":0,"CLASSIFICATION_TYPE":"U","NORAD_CAT_ID":36385,"ELEMENT_SET_NO":999,"REV_AT_EPOCH":86361,"BSTAR":0.002162243,"MEAN_MOTION_DOT":0.00016854,"MEAN_MOTION_DDOT":0}]
